[
  { "name": "Adams, Bryan", "category": "High", "zipcode": "75228" },
  { "name": "Adams, John Quincy", "category": "Elementary", "zipcode": "75218" },
  { "name": "Adams, Nathan", "category": "Elementary", "zipcode": "75231" },
  { "name": "Adamson Early College High School", "category": "High", "zipcode": "75203" },
  { "name": "Adamson, W. H.", "category": "High", "zipcode": "75203" },
  { "name": "Advanced Academic Services", "category": "Other", "zipcode": "" },
  { "name": "Alexander, Birdie", "category": "Elementary", "zipcode": "75218" },
  { "name": "Allen, Gabe P.", "category": "Elementary", "zipcode": "75228" },
  { "name": "Anderson, William", "category": "Elementary", "zipcode": "75218" },
  { "name": "Angelou, Maya", "category": "Elementary", "zipcode": "75228" },
  { "name": "Arcadia Park", "category": "Elementary", "zipcode": "75204" },
  { "name": "Arlington Park Early Childhood Center", "category": "Other", "zipcode": "75211" },
  { "name": "Bayles", "category": "Elementary", "zipcode": "75228" },
  { "name": "Bedford, Louis A.", "category": "Middle", "zipcode": "75204" },
  { "name": "Bethune, Mary McLeod", "category": "Elementary", "zipcode": "75228" },
  { "name": "Biomedical Preparatory at UT Southwestern", "category": "High", "zipcode": "75215" },
  { "name": "Bishop Arts STEAM Academy", "category": "Elementary", "zipcode": "75208" },
  { "name": "Black, Albert C. STEAM Academy", "category": "Elementary", "zipcode": "75216" },
  { "name": "Blair, William A.", "category": "Elementary", "zipcode": "75228" },
  { "name": "Blanton, Annie Webb", "category": "Elementary", "zipcode": "75228" },
  { "name": "Botello, Felix G.", "category": "Elementary", "zipcode": "75228" },
  { "name": "Bowie, James", "category": "Elementary", "zipcode": "75228" },
  { "name": "Brashear, Jimmie Tyler", "category": "Middle", "zipcode": "75216" },
  { "name": "Browne, T. W.", "category": "Middle", "zipcode": "75228" },
  { "name": "Bryan Adams Collegiate Academy", "category": "High", "zipcode": "75228" },
  { "name": "Bryan, John Neely", "category": "Elementary", "zipcode": "75216" },
  { "name": "Buckner Terrace Montessori", "category": "Elementary", "zipcode": "75226" },
  { "name": "Budd, Harrell", "category": "Elementary", "zipcode": "75228" },
  { "name": "Burleson, Rufus C.", "category": "Elementary", "zipcode": "75228" },
  { "name": "Burnet, David", "category": "Elementary", "zipcode": "75231" },
  { "name": "Bush, George", "category": "Elementary", "zipcode": "75228" },
  { "name": "Caillet, F. P.", "category": "Elementary", "zipcode": "75218" },
  { "name": "Callejo, Adelfa Botello", "category": "Elementary", "zipcode": "75228" },
  { "name": "Career & Technical Education (CTE)", "category": "Other", "zipcode": "" },
  { "name": "Career Institute North", "category": "Other", "zipcode": "" },
  { "name": "Career Institute South", "category": "Other", "zipcode": "" },
  { "name": "Carpenter, John W.", "category": "Elementary", "zipcode": "75218" },
  { "name": "Carr, C. F.", "category": "Elementary", "zipcode": "75218" },
  { "name": "Carter Collegiate Academy", "category": "High", "zipcode": "75228" },
  { "name": "Carter, David W.", "category": "Elementary", "zipcode": "75228" },
  { "name": "Casa View", "category": "Elementary", "zipcode": "75206" },
  { "name": "Cedar Crest Elementary", "category": "Elementary", "zipcode": "75203" },
  { "name": "Central Elementary", "category": "Elementary", "zipcode": "75203" },
  { "name": "Chapel Hill Preparatory", "category": "Elementary", "zipcode": "75228" },
  { "name": "Chavez, Cesar", "category": "Elementary", "zipcode": "75216" },
  { "name": "CityLab High School", "category": "High", "zipcode": "75228" },
  { "name": "Cochran, Nancy Jane", "category": "Elementary", "zipcode": "75228" },
  { "name": "Comstock, E. B.", "category": "Elementary", "zipcode": "75228" },
  { "name": "Conner, S. S.", "category": "Elementary", "zipcode": "75228" },
  { "name": "Conrad Collegiate Academy", "category": "High", "zipcode": "75238" },
  { "name": "Conrad, Emmett J.", "category": "High", "zipcode": "75238" },
  { "name": "Cowart, Leila P.", "category": "Elementary", "zipcode": "75228" },
  { "name": "Cuellar Sr., Gilbert", "category": "Elementary", "zipcode": "75228" },
  { "name": "Dade, Billy Earl", "category": "Elementary", "zipcode": "75228" },
  { "name": "Dallas Environmental Science Academy", "category": "Middle", "zipcode": "75204" },
  { "name": "Dallas Hybrid Preparatory at Stephen J. Hay", "category": "Elementary", "zipcode": "75228" },
  { "name": "Dallas ISD Callier Preschool", "category": "Other", "zipcode": "" },
  { "name": "Dealey, George", "category": "Elementary", "zipcode": "75228" },
  { "name": "DeGolyer, Everette L.", "category": "Elementary", "zipcode": "75238" },
  { "name": "DeZavala, Lorenzo", "category": "Elementary", "zipcode": "75228" },
  { "name": "Donald, L.O. Elementary School", "category": "Elementary", "zipcode": "75218" },
  { "name": "Dunbar, Paul L.", "category": "Elementary", "zipcode": "75228" },
  { "name": "Franklin, Benjamin International Exploratory Academy", "category": "High", "zipcode": "75228" },
  { "name": "Garcia, Dr. Elba & Domingo West Dallas STEM School", "category": "Elementary", "zipcode": "75212" },
  { "name": "Garza, Trinidad Early College", "category": "High", "zipcode": "75228" },
  { "name": "Geneva Heights", "category": "Elementary", "zipcode": "75228" },
  { "name": "Gill, Charles A.", "category": "Elementary", "zipcode": "75228" },
  { "name": "Gonzalez Personalized Learning Academy", "category": "Elementary", "zipcode": "75228" },
  { "name": "Greiner, W. E.", "category": "Middle", "zipcode": "75204" },
  { "name": "Haynes, III, Dr. Frederick D. Global Preparatory Academy", "category": "Middle", "zipcode": "75228" },
  { "name": "Henderson, Margaret B.", "category": "Elementary", "zipcode": "75228" },
  { "name": "Hillcrest Collegiate Academy", "category": "High", "zipcode": "75243" },
  { "name": "Justin F. Kimball High School", "category": "High", "zipcode": "75228" },
  { "name": "Kimball Collegiate Academy", "category": "High", "zipcode": "75228" },
  { "name": "Lincoln High School and Humanities Magnet", "category": "High", "zipcode": "75228" },
  { "name": "Madison Collegiate Academy", "category": "High", "zipcode": "75228" },
  { "name": "Molina B-TECH Academy", "category": "High", "zipcode": "75228" },
  { "name": "New Tech High School at B.F. Darrell", "category": "High", "zipcode": "75216" },
  { "name": "Obama, Barack Male Leadership Academy", "category": "High", "zipcode": "75228" },
  { "name": "Seagoville Elementary", "category": "Elementary", "zipcode": "75159" },
  { "name": "Seagoville Middle School", "category": "Middle", "zipcode": "75159" },
  { "name": "Seagoville High School", "category": "High", "zipcode": "75159" },
  { "name": "Skyline High School", "category": "High", "zipcode": "75228" },
  { "name": "West Dallas Junior High", "category": "Middle", "zipcode": "75212" },
  { "name": "Wilmer-Hutchins Collegiate Academy", "category": "High", "zipcode": "75241" },
  { "name": "Wilmer-Hutchins Elementary", "category": "Elementary", "zipcode": "75241" },
  { "name": "Wilmer-Hutchins High School", "category": "High", "zipcode": "75241" },
  { "name": "Young Men's Leadership Academy at Fred F. Florence", "category": "Middle", "zipcode": "75228" },
  { "name": "Young Women's STEAM Academy at Balch Springs", "category": "Middle", "zipcode": "75180" }
]
